STARLINK-36441          
1 67469U 26008AA  26043.25003472 -.01993354  00000+0 -52882-1 0  9997
2 67469  43.0002 349.3779 0001461 275.1412 167.2633 15.41080505  5719
STARLINK-36454          
1 67470U 26008AB  26043.22251082  .00121714  00000+0  20395-2 0  9993
2 67470  42.9996 349.3628 0008324 249.4981 110.4986 15.50669914  5677
STARLINK-36334          
1 67471U 26008AC  26043.25003472 -.01922051  00000+0 -68109-1 0  9995
2 67471  43.0006 349.3739 0001337 274.0399 169.1143 15.32068853  5715
STARLINK-36269          
1 67472U 26008AD  26043.25003472 -.01951026  00000+0 -56085-1 0  9990
2 67472  43.0001 349.2616 0001334 289.8268 199.3393 15.38594369  5725
STARLINK-36408          
1 67473U 26008AE  26043.25003472 -.02000204  00000+0 -47245-1 0  9993
2 67473  43.0002 349.2709 0001215 276.6130 208.8049 15.44511474  5727
ALSAT-3A                
1 67474U 26009A   26043.25985103  .00008257  00000+0  34806-3 0  9998
2 67474  97.4675 117.9017 0012791 157.9186 202.2604 15.23506131  4255
CZ-2C R/B               
1 67475U 26009B   26043.23999154  .00003280  00000+0  22146-3 0  9993
2 67475  97.1740 115.6612 0100377 126.4623 234.5907 15.03151778  4252
TIANQI-37               
1 67476U 26010A   26039.27753693  .00000165  00000+0  15719-3 0  9998
2 67476  44.9825 296.6529 0012909  70.2546 289.9683 14.13528441  3324
TIANQI-38               
1 67477U 26010B   26039.27310946  .00000208  00000+0  17865-3 0  9991
2 67477  44.9788 296.6199 0011754  75.6443 284.5700 14.13905796  3321
TIANQI-39               
1 67478U 26010C   26039.27859865  .00000167  00000+0  15988-3 0  9998
2 67478  44.9839 296.6613 0016488  82.3005 277.9705 14.13055169  3329
TIANQI-40               
1 67479U 26010D   26040.19213046  .00000156  00000+0  15351-3 0  9999
2 67479  44.9786 292.4342 0011741  80.4003 279.8161 14.13182235  3454
SZ-20 MODULE            
1 67481U 25082C   26042.95051177  .00025362  00000+0  27729-3 0  9999
2 67481  41.4801   4.2189 0007358 161.3563 198.7547 15.62695261273598
